NORAD_CAT_ID,OBJECT_NAME,OBJECT_TYPE,EPOCH,MEAN_MOTION,ECCENTRICITY,INCLINATION,RA_OF_ASC_NODE,ARG_OF_PERICENTER,MEAN_ANOMALY,BSTAR,MEAN_MOTION_DOT,MEAN_MOTION_DDOT,TLE_LINE0,TLE_LINE1,TLE_LINE2,SEMIMAJOR_AXIS,PERIOD,APOGEE,PERIGEE,DECAYED
53839.0,STARLINK-4784,PAYLOAD,2024-02-24 04:30:27,15.08839639,0.0001561,53.2163,36.5638,114.1457,245.9698,-1.4099e-05,-5.12e-06,0.0,0 STARLINK-4784,1 53839U 22114X   24055.18781630 -.00000512  00000-0 -14099-4 0  9995,2 53839  53.2163  36.5638 0001561 114.1457 245.9698 15.08839639 80033,6917.881,95.438,540.826,538.667,0.0
53839.0,STARLINK-4784,PAYLOAD,2024-02-24 07:41:13,15.08843368,0.0001397,53.217,35.9695,94.6167,265.4984,3.6064e-05,2.86e-06,0.0,0 STARLINK-4784,1 53839U 22114X   24055.32029317  .00000286  00000-0  36064-4 0  9990,2 53839  53.2170  35.9695 0001397  94.6167 265.4984 15.08843368 80594,6917.87,95.437,540.702,538.769,0.0
53839.0,STARLINK-4784,PAYLOAD,2024-02-24 15:38:09,15.08842117,0.0001371,53.2169,34.4825,90.4764,269.6385,5.1986e-05,5.4e-06,0.0,0 STARLINK-4784,1 53839U 22114X   24055.65149316  .00000540  00000-0  51986-4 0  9991,2 53839  53.2169  34.4825 0001371  90.4764 269.6385 15.08842117 80648,6917.874,95.437,540.687,538.79,0.0
53839.0,STARLINK-4784,PAYLOAD,2024-02-25 05:56:37,15.08840732,0.0001621,53.2184,31.8052,93.7674,266.3504,1.487e-05,-5.1e-07,0.0,0 STARLINK-4784,1 53839U 22114X   24056.24765618 -.00000051  00000-0  14870-4 0  9995,2 53839  53.2184  31.8052 0001621  93.7674 266.3504 15.08840732 80190,6917.878,95.438,540.865,538.622,0.0
53839.0,STARLINK-4784,PAYLOAD,2024-02-25 21:50:29,15.0883743,0.0001624,53.2179,28.8329,85.8383,274.2794,2.4501e-05,1.02e-06,0.0,0 STARLINK-4784,1 53839U 22114X   24056.91005861  .00000102  00000-0  24501-4 0  9994,2 53839  53.2179  28.8329 0001624  85.8383 274.2794 15.08837430 80830,6917.888,95.438,540.877,538.63,0.0
53839.0,STARLINK-4784,PAYLOAD,2024-02-26 04:12:01,15.0883928,0.0001261,53.2186,27.6427,87.3953,272.7184,2.7789e-05,1.54e-06,0.0,0 STARLINK-4784,1 53839U 22114X   24057.17501548  .00000154  00000-0  27789-4 0  9994,2 53839  53.2186  27.6427 0001261  87.3953 272.7184 15.08839280 80876,6917.883,95.438,540.62,538.875,0.0
53839.0,STARLINK-4784,PAYLOAD,2024-02-27 04:02:48,15.08840829,0.0001454,53.2172,23.1846,97.2518,262.864,-3.3208e-05,-8.16e-06,0.0,0 STARLINK-4784,1 53839U 22114X   24058.16861621 -.00000816  00000-0 -33208-4 0  9995,2 53839  53.2172  23.1846 0001454  97.2518 262.8640 15.08840829 80483,6917.878,95.438,540.749,538.737,0.0
53839.0,STARLINK-4784,PAYLOAD,2024-02-27 15:10:30,15.08842065,0.0001339,53.2168,21.1023,103.4127,256.7014,-5.2085e-05,-1.117e-05,0.0,0 STARLINK-4784,1 53839U 22114X   24058.63229469 -.00001117  00000-0 -52085-4 0  9994,2 53839  53.2168  21.1023 0001339 103.4127 256.7014 15.08842065 81090,6917.874,95.437,540.665,538.813,0.0
53839.0,STARLINK-4784,PAYLOAD,2024-02-28 03:53:35,15.08832722,0.0001145,53.2175,18.7196,101.439,258.6731,0.0001346,1.855e-05,0.0,0 STARLINK-4784,1 53839U 22114X   24059.16221492  .00001855  00000-0  13460-3 0  9991,2 53839  53.2175  18.7196 0001145 101.4390 258.6731 15.08832722 81171,6917.903,95.438,540.56,538.976,0.0
53839.0,STARLINK-4784,PAYLOAD,2024-02-29 03:44:23,15.08824395,0.0001433,53.2191,14.26,103.834,256.2812,6.7387e-06,-1.81e-06,0.0,0 STARLINK-4784,1 53839U 22114X   24060.15582745 -.00000181  00000-0  67387-5 0  9994,2 53839  53.2191  14.2600 0001433 103.8340 256.2812 15.08824395 80788,6917.928,95.439,540.784,538.802,0.0
53839.0,STARLINK-4784,PAYLOAD,2024-02-29 13:16:42,15.08835673,0.0001398,53.2193,12.476,100.9116,259.2034,-7.1859e-05,-1.431e-05,0.0,0 STARLINK-4784,1 53839U 22114X   24060.55326532 -.00001431  00000-0 -71859-4 0  9996,2 53839  53.2193  12.4760 0001398 100.9116 259.2034 15.08835673 80843,6917.894,95.438,540.726,538.791,0.0
53839.0,STARLINK-4784,PAYLOAD,2024-02-29 21:13:37,15.08827457,0.000131,53.2189,10.9888,99.1849,260.9291,0.0001264,1.724e-05,0.0,0 STARLINK-4784,1 53839U 22114X   24060.88446521  .00001724  00000-0  12640-3 0  9998,2 53839  53.2189  10.9888 0001310  99.1849 260.9291 15.08827457 81439,6917.919,95.438,540.69,538.877,0.0
53839.0,STARLINK-4784,PAYLOAD,2024-03-01 03:35:09,15.08844156,0.0001314,53.2183,9.8013,93.9002,266.214,0.00010717,1.418e-05,0.0,0 STARLINK-4784,1 53839U 22114X   24061.14941620  .00001418  00000-0  10717-3 0  9991,2 53839  53.2183   9.8013 0001314  93.9002 266.2140 15.08844156 80938,6917.868,95.437,540.642,538.824,0.0
53839.0,STARLINK-4784,PAYLOAD,2024-03-01 13:07:28,15.08847618,0.0001243,53.2179,8.017,90.0724,270.041,6.587e-05,7.61e-06,0.0,0 STARLINK-4784,1 53839U 22114X   24061.54685434  .00000761  00000-0  65870-4 0  9994,2 53839  53.2179   8.0170 0001243  90.0724 270.0410 15.08847618 81534,6917.857,95.437,540.582,538.862,0.0
53839.0,STARLINK-4784,PAYLOAD,2024-03-02 01:50:33,15.0883649,0.0001538,53.2191,5.6412,103.3116,256.8047,8.6442e-05,1.088e-05,0.0,0 STARLINK-4784,1 53839U 22114X   24062.07678213  .00001088  00000-0  86442-4 0  9991,2 53839  53.2191   5.6412 0001538 103.3116 256.8047 15.08836490 81073,6917.891,95.438,540.82,538.692,0.0
53839.0,STARLINK-4784,PAYLOAD,2024-03-03 04:52:07,15.08845119,0.0001564,53.2189,0.5805,92.0373,268.0798,-3.223e-05,-8.01e-06,0.0,0 STARLINK-4784,1 53839U 22114X   24063.20286193 -.00000801  00000-0 -32230-4 0  9999,2 53839  53.2189   0.5805 0001564  92.0373 268.0798 15.08845119 81243,6917.865,95.437,540.812,538.648,0.0
53839.0,STARLINK-4784,PAYLOAD,2024-03-04 04:42:52,15.08858297,0.0001523,53.2185,356.12,91.0013,269.1154,0.00018202,2.611e-05,0.0,0 STARLINK-4784,1 53839U 22114X   24064.19644565  .00002611  00000-0  18202-3 0  9990,2 53839  53.2185 356.1200 0001523  91.0013 269.1154 15.08858297 81398,6917.824,95.436,540.743,538.636,0.0
53839.0,STARLINK-4784,PAYLOAD,2024-03-04 12:39:49,15.08842026,0.0001567,53.2183,354.6354,83.3413,276.7758,4.4174e-05,4.15e-06,0.0,0 STARLINK-4784,1 53839U 22114X   24064.52765810  .00000415  00000-0  44174-4 0  9992,2 53839  53.2183 354.6354 0001567  83.3413 276.7758 15.08842026 81448,6917.874,95.437,540.823,538.655,0.0
53839.0,STARLINK-4784,PAYLOAD,2024-03-05 01:22:57,15.08815887,0.0001551,53.2194,352.2559,80.6233,279.4934,-0.00017092,-3.005e-05,0.0,0 STARLINK-4784,1 53839U 22114X   24065.05760558 -.00003005  00000-0 -17092-3 0  9993,2 53839  53.2194 352.2559 0001551  80.6233 279.4934 15.08815887 81524,6917.954,95.439,540.892,538.746,0.0
53839.0,STARLINK-4784,PAYLOAD,2024-03-05 18:52:11,15.08825086,9.13e-05,53.2197,348.9834,118.4469,241.6615,-8.0977e-05,-1.576e-05,0.0,0 STARLINK-4784,1 53839U 22114X   24065.78624267 -.00001576  00000-0 -80977-4 0  9993,2 53839  53.2197 348.9834 0000913 118.4469 241.6615 15.08825086 81638,6917.926,95.438,540.423,539.159,0.0
53839.0,STARLINK-4784,PAYLOAD,2024-03-06 01:13:42,15.08853849,0.000158,53.2185,347.7949,105.9624,254.1543,-4.0585e-05,-9.34e-06,0.0,0 STARLINK-4784,1 53839U 22114X   24066.05118681 -.00000934  00000-0 -40585-4 0  9990,2 53839  53.2185 347.7949 0001580 105.9624 254.1543 15.08853849 81675,6917.838,95.437,540.796,538.61,0.0
53839.0,STARLINK-4784,PAYLOAD,2024-03-06 04:24:28,15.08855945,0.0001605,53.2182,347.1985,109.9836,250.1329,-1.2513e-05,-4.87e-06,0.0,0 STARLINK-4784,1 53839U 22114X   24066.18366297 -.00000487  00000-0 -12513-4 0  9995,2 53839  53.2182 347.1985 0001605 109.9836 250.1329 15.08855945 82233,6917.832,95.437,540.807,538.586,0.0
53839.0,STARLINK-4784,PAYLOAD,2024-03-07 01:04:29,15.08838268,0.0001277,53.2182,343.3312,97.7503,262.3634,0.00026317,3.903e-05,0.0,0 STARLINK-4784,1 53839U 22114X   24067.04478346  .00003903  00000-0  26317-3 0  9990,2 53839  53.2182 343.3312 0001277  97.7503 262.3634 15.08838268 81822,6917.886,95.438,540.634,538.867,0.0
53839.0,STARLINK-4784,PAYLOAD,2024-03-07 04:15:16,15.08788399,0.0001681,53.2184,342.7368,110.2335,249.8838,0.00091083,0.00014217,0.0,0 STARLINK-4784,1 53839U 22114X   24067.17727156  .00014217  00000-0  91083-3 0  9992,2 53839  53.2184 342.7368 0001681 110.2335 249.8838 15.08788399 82388,6918.038,95.441,541.066,538.74,0.0
53839.0,STARLINK-4784,PAYLOAD,2024-03-08 00:55:17,15.08845275,0.0001458,53.2187,338.8726,108.6898,251.4252,-6.2939e-05,-1.29e-05,0.0,0 STARLINK-4784,1 53839U 22114X   24068.03839187 -.00001290  00000-0 -62939-4 0  9994,2 53839  53.2187 338.8726 0001458 108.6898 251.4252 15.08845275 81972,6917.864,95.437,540.738,538.721,0.0
53839.0,STARLINK-4784,PAYLOAD,2024-03-08 10:27:35,15.08848978,0.0001411,53.2195,337.0883,84.625,275.4903,-2.0999e-05,-6.22e-06,0.0,0 STARLINK-4784,1 53839U 22114X   24068.43582723 -.00000622  00000-0 -20999-4 0  9997,2 53839  53.2195 337.0883 0001411  84.6250 275.4903 15.08848978 82579,6917.853,95.437,540.694,538.742,0.0
53839.0,STARLINK-4784,PAYLOAD,2024-03-09 03:56:50,15.08846322,0.0001457,53.2195,333.8189,84.7849,275.3309,-7.8937e-05,-1.544e-05,0.0,0 STARLINK-4784,1 53839U 22114X   24069.16446794 -.00001544  00000-0 -78937-4 0  9994,2 53839  53.2195 333.8189 0001457  84.7849 275.3309 15.08846322 82140,6917.861,95.437,540.734,538.718,0.0
53839.0,STARLINK-4784,PAYLOAD,2024-03-09 10:18:22,15.08844673,0.0001433,53.2192,332.6287,81.3075,278.8079,-0.00010893,-2.021e-05,0.0,0 STARLINK-4784,1 53839U 22114X   24069.42942984 -.00002021  00000-0 -10893-3 0  9992,2 53839  53.2192 332.6287 0001433  81.3075 278.8079 15.08844673 82724,6917.866,95.437,540.722,538.74,0.0
53839.0,STARLINK-4784,PAYLOAD,2024-03-10 00:36:51,15.08833541,0.0001413,53.2188,329.9539,82.8489,277.2664,-4.9586e-05,-1.077e-05,0.0,0 STARLINK-4784,1 53839U 22114X   24070.02559820 -.00001077  00000-0 -49586-4 0  9995,2 53839  53.2188 329.9539 0001413  82.8489 277.2664 15.08833541 82276,6917.9,95.438,540.743,538.788,0.0
53839.0,STARLINK-4784,PAYLOAD,2024-03-10 10:09:10,15.08837215,0.0001265,53.2187,328.1715,116.0017,244.1105,-5.4295e-05,-1.152e-05,0.0,0 STARLINK-4784,1 53839U 22114X   24070.42303674 -.00001152  00000-0 -54295-4 0  9990,2 53839  53.2187 328.1715 0001265 116.0017 244.1105 15.08837215 82875,6917.889,95.438,540.629,538.879,0.0
